{
    "links": {
        "self": "http://www.neowsapp.com/rest/v1/neo/3986814?api_key=iIulBulltgU6a56xZRHN4H3l9WmuAYTsLGpBGhQ2"
    },
    "id": "3986814",
    "neo_reference_id": "3986814",
    "name": "(2020 BN2)",
    "designation": "2020 BN2",
    "nasa_jpl_url": "http://ssd.jpl.nasa.gov/sbdb.cgi?sstr=3986814",
    "absolute_magnitude_h": 21.788,
    "estimated_diameter": {
        "kilometers": {
            "estimated_diameter_min": 0.116668866,
            "estimated_diameter_max": 0.2608795152
        },
        "meters": {
            "estimated_diameter_min": 116.6688659951,
            "estimated_diameter_max": 260.8795152229
        },
        "miles": {
            "estimated_diameter_min": 0.0724946499,
            "estimated_diameter_max": 0.1621029653
        },
        "feet": {
            "estimated_diameter_min": 382.7718823115,
            "estimated_diameter_max": 855.903948724
        }
    },
    "is_potentially_hazardous_asteroid": false,
    "close_approach_data": [
        {
            "close_approach_date": "2009-01-19",
            "close_approach_date_full": "2009-Jan-19 01:32",
            "epoch_date_close_approach": 1232328720000,
            "relative_velocity": {
                "kilometers_per_second": "20.2322700782",
                "kilometers_per_hour": "72836.1722815877",
                "miles_per_hour": "45257.5649379676"
            },
            "miss_distance": {
                "astronomical": "0.3449482316",
                "lunar": "134.1848620924",
                "kilometers": "51603520.707626692",
                "miles": "32064940.8966526696"
            },
            "orbiting_body": "Earth"
        },
        {
            "close_approach_date": "2020-01-28",
            "close_approach_date_full": "2020-Jan-28 20:22",
            "epoch_date_close_approach": 1580242920000,
            "relative_velocity": {
                "kilometers_per_second": "13.1907743881",
                "kilometers_per_hour": "47486.7877973213",
                "miles_per_hour": "29506.4432288411"
            },
            "miss_distance": {
                "astronomical": "0.3220965352",
                "lunar": "125.2955521928",
                "kilometers": "48184955.600300024",
                "miles": "29940743.0393233712"
            },
            "orbiting_body": "Earth"
        },
        {
            "close_approach_date": "2020-05-07",
            "close_approach_date_full": "2020-May-07 15:48",
            "epoch_date_close_approach": 1588866480000,
            "relative_velocity": {
                "kilometers_per_second": "12.2085785959",
                "kilometers_per_hour": "43950.8829451306",
                "miles_per_hour": "27309.3694611007"
            },
            "miss_distance": {
                "astronomical": "0.4317121729",
                "lunar": "167.9360352581",
                "kilometers": "64583221.518911723",
                "miles": "40130152.9919308574"
            },
            "orbiting_body": "Earth"
        }
    ],
    "orbital_data": {
        "orbit_id": "6",
        "orbit_determination_date": "2020-05-30 06:45:51",
        "first_observation_date": "2020-01-19",
        "last_observation_date": "2020-05-24",
        "data_arc_in_days": 126,
        "observations_used": 46,
        "orbit_uncertainty": "6",
        "minimum_orbit_intersection": ".264906",
        "jupiter_tisserand_invariant": "3.202",
        "epoch_osculation": "2459000.5",
        "eccentricity": ".5629314729633337",
        "semi_major_axis": "2.387350346590174",
        "inclination": "24.002573028244",
        "ascending_node_longitude": "103.10506681",
        "orbital_period": "1347.3259119355",
        "perihelion_distance": "1.043435699504642",
        "perihelion_argument": "71.23420768575318",
        "aphelion_distance": "3.731264993675707",
        "perihelion_time": "2458929.222061352200",
        "mean_anomaly": "19.04517510269353",
        "mean_motion": ".2671959299608825",
        "equinox": "J2000",
        "orbit_class": {
            "orbit_class_type": "AMO",
            "orbit_class_description": "Near-Earth asteroid orbits similar to that of 1221 Amor",
            "orbit_class_range": "1.017 AU < q (perihelion) < 1.3 AU"
        }
    },
    "is_sentry_object": false
}